{
  "norad_id": 64701,
  "name": "STARLINK-34576",
  "history": [
    {
      "epoch": "2026-05-06T08:52:41.284992Z",
      "apogee_km": 574.5272156919973,
      "perigee_km": 569.5675641113621,
      "latitude_deg": -5.656894625980684e-05,
      "longitude_deg": 171.47532529163695,
      "height_km": 575.001708178778,
      "semi_major_axis_km": 6950.184389901679,
      "eccentricity": 0.0003568,
      "inclination_deg": 70.0018,
      "raan_deg": 168.8789,
      "arg_perigee_deg": 257.7495,
      "mean_anomaly_deg": 102.3264,
      "mean_motion_rev_day": 14.98332749
    },
    {
      "epoch": "2026-05-07T20:07:39.360000Z",
      "apogee_km": 574.6545671686636,
      "perigee_km": 569.5016776769007,
      "latitude_deg": 5.775734687006031e-06,
      "longitude_deg": -2.4212807446320723,
      "height_km": 574.7337887199947,
      "semi_major_axis_km": 6950.215122422782,
      "eccentricity": 0.0003707,
      "inclination_deg": 70.001,
      "raan_deg": 165.1719,
      "arg_perigee_deg": 264.935,
      "mean_anomaly_deg": 95.1386,
      "mean_motion_rev_day": 14.98322811
    },
    {
      "epoch": "2026-05-08T20:09:40.517856Z",
      "apogee_km": 574.8496694379892,
      "perigee_km": 569.2603250338125,
      "latitude_deg": -7.970705438974212e-06,
      "longitude_deg": -6.437040182587255,
      "height_km": 574.6481046899152,
      "semi_major_axis_km": 6950.1919972359,
      "eccentricity": 0.0004021,
      "inclination_deg": 70.0005,
      "raan_deg": 162.648,
      "arg_perigee_deg": 266.6222,
      "mean_anomaly_deg": 93.4477,
      "mean_motion_rev_day": 14.98330289
    }
  ]
}